[{"OBJECT_NAME":"STARLINK-35599","OBJECT_ID":"2025-236S","EPOCH":"2026-03-09T12:04:05.315520","MEAN_MOTION":15.30135876,"ECCENTRICITY":0.00012844,"INCLINATION":53.1587,"RA_OF_ASC_NODE":104.9039,"ARG_OF_PERICENTER":63.9084,"MEAN_ANOMALY":296.2049,"EPHEMERIS_TYPE":0,"CLASSIFICATION_TYPE":"U","NORAD_CAT_ID":66102,"ELEMENT_SET_NO":999,"REV_AT_EPOCH":2285,"BSTAR":0.00053310275,"MEAN_MOTION_DOT":0.00015432,"MEAN_MOTION_DDOT":0},{"OBJECT_NAME":"SL-3 R\/B","OBJECT_ID":"1982-027B","EPOCH":"2026-03-09T22:44:40.208640","MEAN_MOTION":15.28335844,"ECCENTRICITY":0.00065199,"INCLINATION":81.188,"RA_OF_ASC_NODE":37.4466,"ARG_OF_PERICENTER":276.581,"MEAN_ANOMALY":83.4683,"EPHEMERIS_TYPE":0,"CLASSIFICATION_TYPE":"U","NORAD_CAT_ID":13121,"ELEMENT_SET_NO":999,"REV_AT_EPOCH":39859,"BSTAR":0.00030526741,"MEAN_MOTION_DOT":8.453e-5,"MEAN_MOTION_DDOT":0}]
